{
  "norad_id": 54114,
  "name": "ONEWEB-0492",
  "history": [
    {
      "epoch": "2026-03-28T20:52:36.961536Z",
      "apogee_km": 1187.233610516334,
      "perigee_km": 1184.3006310544579,
      "latitude_deg": 5.0478204563837e-06,
      "longitude_deg": -178.45572733569958,
      "height_km": 1188.43181012587,
      "semi_major_axis_km": 7563.904120785395,
      "eccentricity": 0.00019388,
      "inclination_deg": 87.9196,
      "raan_deg": 320.9824,
      "arg_perigee_deg": 80.8308,
      "mean_anomaly_deg": 279.3044,
      "mean_motion_rev_day": 13.19725898
    },
    {
      "epoch": "2026-03-29T04:09:19.218240Z",
      "apogee_km": 1187.238448270171,
      "perigee_km": 1184.2915520509068,
      "latitude_deg": -1.584494561446623e-05,
      "longitude_deg": 72.00898888931751,
      "height_km": 1188.4354396147771,
      "semi_major_axis_km": 7563.902000160539,
      "eccentricity": 0.0001948,
      "inclination_deg": 87.9196,
      "raan_deg": 320.9221,
      "arg_perigee_deg": 81.1014,
      "mean_anomaly_deg": 279.0339,
      "mean_motion_rev_day": 13.19726453
    },
    {
      "epoch": "2026-03-30T01:59:26.079072Z",
      "apogee_km": 1187.2298008299722,
      "perigee_km": 1184.3071077624327,
      "latitude_deg": -1.2063708656172205e-05,
      "longitude_deg": 103.40256133559492,
      "height_km": 1188.4315444626047,
      "semi_major_axis_km": 7563.905454296202,
      "eccentricity": 0.0001932,
      "inclination_deg": 87.9194,
      "raan_deg": 320.741,
      "arg_perigee_deg": 80.7342,
      "mean_anomaly_deg": 279.4009,
      "mean_motion_rev_day": 13.19725549
    },
    {
      "epoch": "2026-03-30T09:16:08.305536Z",
      "apogee_km": 1187.2186999393498,
      "perigee_km": 1184.3129510299113,
      "latitude_deg": 2.9541533784775834e-05,
      "longitude_deg": -6.132693522249102,
      "height_km": 1188.4244487123503,
      "semi_major_axis_km": 7563.902825484631,
      "eccentricity": 0.00019208,
      "inclination_deg": 87.9194,
      "raan_deg": 320.6806,
      "arg_perigee_deg": 80.5005,
      "mean_anomaly_deg": 279.6345,
      "mean_motion_rev_day": 13.19726237
    },
    {
      "epoch": "2026-03-30T22:00:22.355424Z",
      "apogee_km": 1187.2166066773907,
      "perigee_km": 1184.3197822660122,
      "latitude_deg": 7.693298842467991e-06,
      "longitude_deg": 162.1800654031466,
      "height_km": 1188.423088041801,
      "semi_major_axis_km": 7563.905194471701,
      "eccentricity": 0.00019149,
      "inclination_deg": 87.9193,
      "raan_deg": 320.575,
      "arg_perigee_deg": 80.3208,
      "mean_anomaly_deg": 279.8141,
      "mean_motion_rev_day": 13.19725617
    },
    {
      "epoch": "2026-03-31T21:39:39.726432Z",
      "apogee_km": 1187.2180339824317,
      "perigee_km": 1184.315007811112,
      "latitude_deg": 6.543555562555238e-05,
      "longitude_deg": 166.19012049895164,
      "height_km": 1188.4194412678476,
      "semi_major_axis_km": 7563.903520896772,
      "eccentricity": 0.0001919,
      "inclination_deg": 87.9192,
      "raan_deg": 320.3789,
      "arg_perigee_deg": 80.2633,
      "mean_anomaly_deg": 279.8717,
      "mean_motion_rev_day": 13.19726055
    },
    {
      "epoch": "2026-04-01T21:18:57.107808Z",
      "apogee_km": 1187.2318206811024,
      "perigee_km": 1184.3000519029956,
      "latitude_deg": 1.908309070977919e-05,
      "longitude_deg": 170.19982838256317,
      "height_km": 1188.4287514437353,
      "semi_major_axis_km": 7563.902936292049,
      "eccentricity": 0.0001938,
      "inclination_deg": 87.9188,
      "raan_deg": 320.1825,
      "arg_perigee_deg": 80.753,
      "mean_anomaly_deg": 279.3822,
      "mean_motion_rev_day": 13.19726208
    },
    {
      "epoch": "2026-04-02T04:35:39.364512Z",
      "apogee_km": 1187.243382967803,
      "perigee_km": 1184.285746178024,
      "latitude_deg": 1.6860627867010917e-06,
      "longitude_deg": 60.66454496797789,
      "height_km": 1188.4350835283183,
      "semi_major_axis_km": 7563.901564572913,
      "eccentricity": 0.00019551,
      "inclination_deg": 87.9189,
      "raan_deg": 320.1222,
      "arg_perigee_deg": 81.1379,
      "mean_anomaly_deg": 278.9975,
      "mean_motion_rev_day": 13.19726567
    },
    {
      "epoch": "2026-04-03T15:10:00.038496Z",
      "apogee_km": 1187.23524217877,
      "perigee_km": 1184.2898596936348,
      "latitude_deg": 2.6095696792888176e-05,
      "longitude_deg": -99.62803363616466,
      "height_km": 1188.4207640440786,
      "semi_major_axis_km": 7563.899550936202,
      "eccentricity": 0.0001947,
      "inclination_deg": 87.9184,
      "raan_deg": 319.8356,
      "arg_perigee_deg": 80.6154,
      "mean_anomaly_deg": 279.5199,
      "mean_motion_rev_day": 13.19727094
    },
    {
      "epoch": "2026-04-04T03:54:13.971744Z",
      "apogee_km": 1187.2146776043428,
      "perigee_km": 1184.310745227136,
      "latitude_deg": -2.487526152816397e-05,
      "longitude_deg": 68.68511077064663,
      "height_km": 1188.4091976943657,
      "semi_major_axis_km": 7563.899711415739,
      "eccentricity": 0.00019196,
      "inclination_deg": 87.9183,
      "raan_deg": 319.7299,
      "arg_perigee_deg": 80.0083,
      "mean_anomaly_deg": 280.1266,
      "mean_motion_rev_day": 13.19727052
    },
    {
      "epoch": "2026-04-05T14:28:34.745088Z",
      "apogee_km": 1187.2082295911541,
      "perigee_km": 1184.3230545673605,
      "latitude_deg": -4.285999569393664e-05,
      "longitude_deg": -91.60828689361108,
      "height_km": 1188.398600261267,
      "semi_major_axis_km": 7563.902642079257,
      "eccentricity": 0.00019072,
      "inclination_deg": 87.918,
      "raan_deg": 319.4429,
      "arg_perigee_deg": 79.3955,
      "mean_anomaly_deg": 280.7392,
      "mean_motion_rev_day": 13.19726285
    },
    {
      "epoch": "2026-04-05T16:17:45.309696Z",
      "apogee_km": 1187.2039336037096,
      "perigee_km": 1184.3281376695604,
      "latitude_deg": 2.280320506838745e-05,
      "longitude_deg": -118.99213222361126,
      "height_km": 1188.401433554767,
      "semi_major_axis_km": 7563.903035636635,
      "eccentricity": 0.0001901,
      "inclination_deg": 87.918,
      "raan_deg": 319.4278,
      "arg_perigee_deg": 79.4594,
      "mean_anomaly_deg": 280.6753,
      "mean_motion_rev_day": 13.19726182
    },
    {
      "epoch": "2026-04-06T03:12:48.641184Z",
      "apogee_km": 1187.208742422551,
      "perigee_km": 1184.3157022479918,
      "latitude_deg": -4.497483936904851e-05,
      "longitude_deg": 76.70501364302324,
      "height_km": 1188.410129049698,
      "semi_major_axis_km": 7563.899222335272,
      "eccentricity": 0.00019124,
      "inclination_deg": 87.9179,
      "raan_deg": 319.3372,
      "arg_perigee_deg": 80.0269,
      "mean_anomaly_deg": 280.1079,
      "mean_motion_rev_day": 13.1972718
    },
    {
      "epoch": "2026-04-07T13:47:09.386880Z",
      "apogee_km": 1187.204094993691,
      "perigee_km": 1184.3211902838957,
      "latitude_deg": 4.524661732752466e-05,
      "longitude_deg": -83.58826654873796,
      "height_km": 1188.406222837353,
      "semi_major_axis_km": 7563.899642638793,
      "eccentricity": 0.00019057,
      "inclination_deg": 87.9177,
      "raan_deg": 319.0502,
      "arg_perigee_deg": 79.8169,
      "mean_anomaly_deg": 280.3179,
      "mean_motion_rev_day": 13.1972707
    },
    {
      "epoch": "2026-04-07T21:03:51.668640Z",
      "apogee_km": 1187.1951655756302,
      "perigee_km": 1184.3329854086642,
      "latitude_deg": 1.5215159071364432e-05,
      "longitude_deg": 166.87624373269352,
      "height_km": 1188.403887298437,
      "semi_major_axis_km": 7563.901075492147,
      "eccentricity": 0.0001892,
      "inclination_deg": 87.9177,
      "raan_deg": 318.9898,
      "arg_perigee_deg": 79.5878,
      "mean_anomaly_deg": 280.5468,
      "mean_motion_rev_day": 13.19726695
    },
    {
      "epoch": "2026-04-08T13:26:26.752704Z",
      "apogee_km": 1187.1852137339793,
      "perigee_km": 1184.341187258592,
      "latitude_deg": -4.565933355610827e-05,
      "longitude_deg": -79.5782995100737,
      "height_km": 1188.4031766539836,
      "semi_major_axis_km": 7563.900200496285,
      "eccentricity": 0.000188,
      "inclination_deg": 87.9175,
      "raan_deg": 318.854,
      "arg_perigee_deg": 79.5261,
      "mean_anomaly_deg": 280.6083,
      "mean_motion_rev_day": 13.19726924
    },
    {
      "epoch": "2026-04-09T13:05:44.094336Z",
      "apogee_km": 1187.186818532813,
      "perigee_km": 1184.3412789582753,
      "latitude_deg": 5.386533972368661e-05,
      "longitude_deg": -75.5684244743921,
      "height_km": 1188.4002726526787,
      "semi_major_axis_km": 7563.901048745544,
      "eccentricity": 0.0001881,
      "inclination_deg": 87.9172,
      "raan_deg": 318.6576,
      "arg_perigee_deg": 79.3788,
      "mean_anomaly_deg": 280.7557,
      "mean_motion_rev_day": 13.19726702
    },
    {
      "epoch": "2026-04-10T03:39:08.509248Z",
      "apogee_km": 1187.2076935454434,
      "perigee_km": 1184.3135950287879,
      "latitude_deg": -2.7774548930966338e-05,
      "longitude_deg": 65.36111629632862,
      "height_km": 1188.3993318660619,
      "semi_major_axis_km": 7563.897644287115,
      "eccentricity": 0.00019131,
      "inclination_deg": 87.9172,
      "raan_deg": 318.5367,
      "arg_perigee_deg": 79.66,
      "mean_anomaly_deg": 280.4748,
      "mean_motion_rev_day": 13.19727593
    },
    {
      "epoch": "2026-04-11T21:30:11.437344Z",
      "apogee_km": 1187.191768714989,
      "perigee_km": 1184.3326148205015,
      "latitude_deg": -3.435221922907706e-06,
      "longitude_deg": 155.53286152854045,
      "height_km": 1188.4173625797632,
      "semi_major_axis_km": 7563.899191767745,
      "eccentricity": 0.000189,
      "inclination_deg": 87.917,
      "raan_deg": 318.1894,
      "arg_perigee_deg": 80.202,
      "mean_anomaly_deg": 279.9326,
      "mean_motion_rev_day": 13.19727188
    }
  ]
}